OBJECT C                
1 57582U 23117C   24274.17789768  .00017256  00000+0  83395-3 0  9994
2 57582  97.4777 344.9290 0008771 289.2736  70.7549 15.18660284 63104
